STARLINK-2022           
1 47643U 21012Z   24162.35768170  .00015838  00000+0  10796-2 0  9991
2 47643  53.0547  32.7084 0001269  82.2462 277.8671 15.06406274183685
